{
  "type": "FeatureCollection",
  "features": [
    {
      "type": "Feature",
      "properties": {
        "norad_id": 34022,
        "name": "COSMOS 2251 DEB",
        "group": "cosmos-2251-debris",
        "lat": -20.54442767820842,
        "lon": -79.54339118044875,
        "alt_km": 751.4121613002744,
        "timestamp": "2025-12-04T03:47:54.935554+00:00",
        "meta_object_name": "COSMOS 2251 DEB",
        "meta_object_id": "1993-036HH",
        "meta_epoch": "2025-12-02T22:07:25.071744",
        "meta_mean_motion": 14.38936714,
        "meta_eccentricity": 0.00223423,
        "meta_inclination": 74.0538,
        "meta_ra_of_asc_node": 288.8851,
        "meta_arg_of_pericenter": 355.7024,
        "meta_mean_anomaly": 60.5869,
        "meta_ephemeris_type": 0,
        "meta_classification_type": "U",
        "meta_norad_cat_id": 34022,
        "meta_element_set_no": 999,
        "meta_rev_at_epoch": 88054,
        "meta_bstar": 0.00034551866,
        "meta_mean_motion_dot": 1.042e-05,
        "meta_mean_motion_ddot": 0,
        "tle_line1": "1 34022U 93036HH  25336.92181796  .00001042  00000+0  34552-3 0  9992",
        "tle_line2": "2 34022  74.0538 288.8851 0022342 355.7024  60.5869 14.38936714880544"
      },
      "geometry": {
        "type": "Point",
        "coordinates": [
          -79.54339118044875,
          -20.54442767820842
        ]
      }
    },
    {
      "type": "Feature",
      "properties": {
        "norad_id": 34023,
        "name": "COSMOS 2251 DEB",
        "group": "cosmos-2251-debris",
        "lat": -27.761392976209727,
        "lon": 96.29670370751336,
        "alt_km": 773.9317546961684,
        "timestamp": "2025-12-04T03:47:54.935564+00:00",
        "meta_object_name": "COSMOS 2251 DEB",
        "meta_object_id": "1993-036HJ",
        "meta_epoch": "2025-12-03T05:51:38.172384",
        "meta_mean_motion": 14.40524866,
        "meta_eccentricity": 0.0018049,
        "meta_inclination": 74.0248,
        "meta_ra_of_asc_node": 269.315,
        "meta_arg_of_pericenter": 6.5951,
        "meta_mean_anomaly": 143.9398,
        "meta_ephemeris_type": 0,
        "meta_classification_type": "U",
        "meta_norad_cat_id": 34023,
        "meta_element_set_no": 999,
        "meta_rev_at_epoch": 88077,
        "meta_bstar": 0.00054995,
        "meta_mean_motion_dot": 1.728e-05,
        "meta_mean_motion_ddot": 0,
        "tle_line1": "1 34023U 93036HJ  25337.24419181  .00001728  00000+0  54995-3 0  9995",
        "tle_line2": "2 34023  74.0248 269.3150 0018049   6.5951 143.9398 14.40524866880770"
      },
      "geometry": {
        "type": "Point",
        "coordinates": [
          96.29670370751336,
          -27.761392976209727
        ]
      }
    },
    {
      "type": "Feature",
      "properties": {
        "norad_id": 34024,
        "name": "COSMOS 2251 DEB",
        "group": "cosmos-2251-debris",
        "lat": 16.817727466520694,
        "lon": -23.316775196506928,
        "alt_km": 759.3533901578649,
        "timestamp": "2025-12-04T03:47:54.935574+00:00",
        "meta_object_name": "COSMOS 2251 DEB",
        "meta_object_id": "1993-036HK",
        "meta_epoch": "2025-12-03T18:30:19.564992",
        "meta_mean_motion": 14.35379381,
        "meta_eccentricity": 0.0020624,
        "meta_inclination": 74.0462,
        "meta_ra_of_asc_node": 332.4325,
        "meta_arg_of_pericenter": 25.5346,
        "meta_mean_anomaly": 152.0381,
        "meta_ephemeris_type": 0,
        "meta_classification_type": "U",
        "meta_norad_cat_id": 34024,
        "meta_element_set_no": 999,
        "meta_rev_at_epoch": 87895,
        "meta_bstar": 0.00029056,
        "meta_mean_motion_dot": 8.1e-06,
        "meta_mean_motion_ddot": 0,
        "tle_line1": "1 34024U 93036HK  25337.77105978  .00000810  00000+0  29056-3 0  9991",
        "tle_line2": "2 34024  74.0462 332.4325 0020624  25.5346 152.0381 14.35379381878950"
      },
      "geometry": {
        "type": "Point",
        "coordinates": [
          -23.316775196506928,
          16.817727466520694
        ]
      }
    },
    {
      "type": "Feature",
      "properties": {
        "norad_id": 34026,
        "name": "COSMOS 2251 DEB",
        "group": "cosmos-2251-debris",
        "lat": -73.75702092198662,
        "lon": -97.80221709801731,
        "alt_km": 842.7703017880758,
        "timestamp": "2025-12-04T03:47:54.935584+00:00",
        "meta_object_name": "COSMOS 2251 DEB",
        "meta_object_id": "1993-036HM",
        "meta_epoch": "2025-12-03T11:29:01.814208",
        "meta_mean_motion": 13.65279023,
        "meta_eccentricity": 0.0351224,
        "meta_inclination": 73.7673,
        "meta_ra_of_asc_node": 352.6869,
        "meta_arg_of_pericenter": 224.0439,
        "meta_mean_anomaly": 303.3294,
        "meta_ephemeris_type": 0,
        "meta_classification_type": "U",
        "meta_norad_cat_id": 34026,
        "meta_element_set_no": 999,
        "meta_rev_at_epoch": 83405,
        "meta_bstar": 0.0013493,
        "meta_mean_motion_dot": 1.647e-05,
        "meta_mean_motion_ddot": 0,
        "tle_line1": "1 34026U 93036HM  25337.47849322  .00001647  00000+0  13493-2 0  9994",
        "tle_line2": "2 34026  73.7673 352.6869 0351224 224.0439 303.3294 13.65279023834052"
      },
      "geometry": {
        "type": "Point",
        "coordinates": [
          -97.80221709801731,
          -73.75702092198662
        ]
      }
    },
    {
      "type": "Feature",
      "properties": {
        "norad_id": 34028,
        "name": "COSMOS 2251 DEB",
        "group": "cosmos-2251-debris",
        "lat": -46.4040749899048,
        "lon": -161.9160995534932,
        "alt_km": 1160.1142574674504,
        "timestamp": "2025-12-04T03:47:54.935596+00:00",
        "meta_object_name": "COSMOS 2251 DEB",
        "meta_object_id": "1993-036HP",
        "meta_epoch": "2025-12-03T20:17:11.545728",
        "meta_mean_motion": 13.20615691,
        "meta_eccentricity": 0.0544094,
        "meta_inclination": 73.8836,
        "meta_ra_of_asc_node": 0.8871,
        "meta_arg_of_pericenter": 140.2533,
        "meta_mean_anomaly": 34.8225,
        "meta_ephemeris_type": 0,
        "meta_classification_type": "U",
        "meta_norad_cat_id": 34028,
        "meta_element_set_no": 999,
        "meta_rev_at_epoch": 80890,
        "meta_bstar": 0.00023469,
        "meta_mean_motion_dot": 1.9e-06,
        "meta_mean_motion_ddot": 0,
        "tle_line1": "1 34028U 93036HP  25337.84527252  .00000190  00000+0  23469-3 0  9999",
        "tle_line2": "2 34028  73.8836   0.8871 0544094 140.2533  34.8225 13.20615691808905"
      },
      "geometry": {
        "type": "Point",
        "coordinates": [
          -161.9160995534932,
          -46.4040749899048
        ]
      }
    },
    {
      "type": "Feature",
      "properties": {
        "norad_id": 34031,
        "name": "COSMOS 2251 DEB",
        "group": "cosmos-2251-debris",
        "lat": 2.9350795392637257,
        "lon": -28.746999491068713,
        "alt_km": 698.5836223530005,
        "timestamp": "2025-12-04T03:47:54.935606+00:00",
        "meta_object_name": "COSMOS 2251 DEB",
        "meta_object_id": "1993-036HS",
        "meta_epoch": "2025-12-03T18:49:51.727872",
        "meta_mean_motion": 14.59508576,
        "meta_eccentricity": 0.0022927,
        "meta_inclination": 74.0115,
        "meta_ra_of_asc_node": 152.8085,
        "meta_arg_of_pericenter": 273.4164,
        "meta_mean_anomaly": 101.2427,
        "meta_ephemeris_type": 0,
        "meta_classification_type": "U",
        "meta_norad_cat_id": 34031,
        "meta_element_set_no": 999,
        "meta_rev_at_epoch": 88435,
        "meta_bstar": 0.001851,
        "meta_mean_motion_dot": 8.801e-05,
        "meta_mean_motion_ddot": 0,
        "tle_line1": "1 34031U 93036HS  25337.78462648  .00008801  00000+0  18510-2 0  9990",
        "tle_line2": "2 34031  74.0115 152.8085 0022927 273.4164 101.2427 14.59508576884354"
      },
      "geometry": {
        "type": "Point",
        "coordinates": [
          -28.746999491068713,
          2.9350795392637257
        ]
      }
    },
    {
      "type": "Feature",
      "properties": {
        "norad_id": 34035,
        "name": "COSMOS 2251 DEB",
        "group": "cosmos-2251-debris",
        "lat": -37.39431187930849,
        "lon": -162.10962969009458,
        "alt_km": 752.9503940830928,
        "timestamp": "2025-12-04T03:47:54.935616+00:00",
        "meta_object_name": "COSMOS 2251 DEB",
        "meta_object_id": "1993-036HW",
        "meta_epoch": "2025-12-03T12:35:45.585024",
        "meta_mean_motion": 14.51755912,
        "meta_eccentricity": 0.0044109,
        "meta_inclination": 74.0658,
        "meta_ra_of_asc_node": 6.4666,
        "meta_arg_of_pericenter": 10.2404,
        "meta_mean_anomaly": 139.8596,
        "meta_ephemeris_type": 0,
        "meta_classification_type": "U",
        "meta_norad_cat_id": 34035,
        "meta_element_set_no": 999,
        "meta_rev_at_epoch": 87832,
        "meta_bstar": 0.0020195,
        "meta_mean_motion_dot": 8.201e-05,
        "meta_mean_motion_ddot": 0,
        "tle_line1": "1 34035U 93036HW  25337.52483316  .00008201  00000+0  20195-2 0  9997",
        "tle_line2": "2 34035  74.0658   6.4666 0044109  10.2404 139.8596 14.51755912878323"
      },
      "geometry": {
        "type": "Point",
        "coordinates": [
          -162.10962969009458,
          -37.39431187930849
        ]
      }
    }
  ]
}